*******************************************************************************
 Revised : Jul 31, 2013                  Sun                                 10

 PHYSICAL PROPERTIES (revised Jan 16, 2014):
  GM (10^11 km^3/s^2)   = 1.3271244004193938  Mass (10^30 kg)   ~ 1.988544
  Radius (photosphere)  = 6.963(10^5) km  Angular diam at 1 AU  = 1919.3"
  Solar Radius (IAU)    = 6.955(10^5) km  Mean density          = 1.408 g/cm^3
  Surface gravity       =  274.0 m/s^2    Moment of inertia     = 0.059
  Escape velocity       =  617.7 km/s     Adopted sidereal per  = 25.38 d
  Pole (RA,DEC in deg.) =  286.13,63.87   Obliquity to ecliptic = 7 deg 15'        
  Solar constant (1 AU) = 1367.6 W/m^2    Solar lumin.(erg/s)   =  3.846(10^33)
  Mass-energy conv rate = 4.3(10^12 gm/s) Effective temp (K)    =  5778
  Surf. temp (photosphr)= 6600 K (bottom) Surf. temp (photosphr)=  4400 K (top)
  Photospheric depth    = ~400 km         Chromospheric depth   = ~2500 km
  Sunspot cycle         = 11.4 yr         Cycle 22 sunspot min. =  1991 A.D.

  Motn. rel to nrby strs= apex : RA=271 deg; DEC=+30 deg
                          speed: 19.4 km/s = 0.0112 AU/day
  Motn. rel to 2.73K BB = apex : l=264.7+-0.8; b=48.2+-0.5
                          speed: 369 +-11 km/s
*******************************************************************************
 
 
*******************************************************************************
Ephemeris / WWW_USER Sun Jan 18 02:25:30 2015 Pasadena, USA      / Horizons    
*******************************************************************************
Target body name: Sun (10)                        {source: DE-0431LE-0431}
Center body name: Solar System Barycenter (0)     {source: DE-0431LE-0431}
Center-site name: BODY CENTER
*******************************************************************************
Start time      : A.D. 2015-Jan-18 00:00:00.0000 CT 
Stop  time      : A.D. 2015-Feb-17 00:00:00.0000 CT 
Step-size       : 1440 minutes
*******************************************************************************
Center geodetic : 0.00000000,0.00000000,0.0000000 {E-lon(deg),Lat(deg),Alt(km)}
Center cylindric: 0.00000000,0.00000000,0.0000000 {E-lon(deg),Dxy(km),Dz(km)}
Center radii    : (undefined)                                                  
Output units    : AU-D                                                         
Output format   : 02
Reference frame : ICRF/J2000.0                                                 
Output type     : LT+S CORRECTED cartesian states
Coordinate systm: Ecliptic and Mean Equinox of Reference Epoch                 
*******************************************************************************
JDCT ,   , X, Y, Z, VX, VY, VZ,
*******************************************************************************
$$SOE
2457040.500000000, A.D. 2015-Jan-18 00:00:00.0000,  2.907709086857369E-03, -7.651832268497074E-04, -1.388689829884795E-04,  3.869865713775272E-06,  5.349727162294384E-06, -9.652291914166599E-08,
2457041.500000000, A.D. 2015-Jan-19 00:00:00.0000,  2.911575790420665E-03, -7.598299318703100E-04, -1.389654626515660E-04,  3.863532250755123E-06,  5.356872019128287E-06, -9.643524654745250E-08,
2457042.500000000, A.D. 2015-Jan-20 00:00:00.0000,  2.915436131598246E-03, -7.544694657514118E-04, -1.390618511295948E-04,  3.857139856223880E-06,  5.364068459130617E-06, -9.634053203452856E-08,
2457043.500000000, A.D. 2015-Jan-21 00:00:00.0000,  2.919290048370450E-03, -7.491017800526626E-04, -1.391581413609134E-04,  3.850682534936941E-06,  5.371310007198108E-06, -9.623876792917813E-08,
2457044.500000000, A.D. 2015-Jan-22 00:00:00.0000,  2.923137473316184E-03, -7.437268333412946E-04, -1.392543263732853E-04,  3.844155527407762E-06,  5.378589164478769E-06, -9.613014178254871E-08,
2457045.500000000, A.D. 2015-Jan-23 00:00:00.0000,  2.926978334978460E-03, -7.383445920698172E-04, -1.393503994790766E-04,  3.837555553606323E-06,  5.385897720308970E-06, -9.601503321837891E-08,
2457046.500000000, A.D. 2015-Jan-24 00:00:00.0000,  2.930812559420976E-03, -7.329550310946212E-04, -1.394463544586068E-04,  3.830880947040800E-06,  5.393227146605133E-06, -9.589399398729324E-08,
2457047.500000000, A.D. 2015-Jan-25 00:00:00.0000,  2.934640071857063E-03, -7.275581337859488E-04, -1.395421857167281E-04,  3.824131664831074E-06,  5.400569011526834E-06, -9.576771506989648E-08,
2457048.500000000, A.D. 2015-Jan-26 00:00:00.0000,  2.938460798228095E-03, -7.221538917353896E-04, -1.396378884018609E-04,  3.817309178709651E-06,  5.407915363795337E-06, -9.563698525382979E-08,
2457049.500000000, A.D. 2015-Jan-27 00:00:00.0000,  2.942274666621017E-03, -7.167423041088205E-04, -1.397334584812813E-04,  3.810416266457503E-06,  5.415259052712138E-06, -9.550264583073552E-08,
2457050.500000000, A.D. 2015-Jan-28 00:00:00.0000,  2.946081608439443E-03, -7.113233767212716E-04, -1.398288927710555E-04,  3.803456733099050E-06,  5.422593961675886E-06, -9.536554591761230E-08,
2457051.500000000, A.D. 2015-Jan-29 00:00:00.0000,  2.949881559275083E-03, -7.058971209262836E-04, -1.399241889233067E-04,  3.796435096241706E-06,  5.429915144843201E-06, -9.522650240339426E-08,
2457052.500000000, A.D. 2015-Jan-30 00:00:00.0000,  2.953674459461152E-03, -7.004635524172253E-04, -1.400193453770931E-04,  3.789356270251630E-06,  5.437218867519165E-06, -9.508626765578728E-08,
2457053.500000000, A.D. 2015-Jan-31 00:00:00.0000,  2.957460254322271E-03, -6.950226900323345E-04, -1.401143612817273E-04,  3.782225279508166E-06,  5.444502560896739E-06, -9.494550689534823E-08,
2457054.500000000, A.D. 2015-Feb-01 00:00:00.0000,  2.961238894161452E-03, -6.895745546399613E-04, -1.402092364025123E-04,  3.775047021774983E-06,  5.451764710891191E-06, -9.480478555357725E-08,
2457055.500000000, A.D. 2015-Feb-02 00:00:00.0000,  2.965010334039153E-03, -6.841191681566076E-04, -1.403039710182358E-04,  3.767826088766363E-06,  5.459004709035496E-06, -9.466456497941927E-08,
2457056.500000000, A.D. 2015-Feb-03 00:00:00.0000,  2.968774533397572E-03, -6.786565527186137E-04, -1.403985658170068E-04,  3.760566632272095E-06,  5.466222700715950E-06, -9.452520254392210E-08,
2457057.500000000, A.D. 2015-Feb-04 00:00:00.0000,  2.972531455577208E-03, -6.731867300121166E-04, -1.404930217951274E-04,  3.753272295014957E-06,  5.473419403691565E-06, -9.438696011349364E-08,
2457058.500000000, A.D. 2015-Feb-05 00:00:00.0000,  2.976281067293967E-03, -6.677097207850327E-04, -1.405873401672068E-04,  3.745946177808367E-06,  5.480595960036594E-06, -9.425001312296099E-08,
2457059.500000000, A.D. 2015-Feb-06 00:00:00.0000,  2.980023338092397E-03, -6.622255444899244E-04, -1.406815222847684E-04,  3.738590841040255E-06,  5.487753794839472E-06, -9.411446224776620E-08,
2457060.500000000, A.D. 2015-Feb-07 00:00:00.0000,  2.983758239816946E-03, -6.567342190620981E-04, -1.407755695675511E-04,  3.731208329934623E-06,  5.494894499650960E-06, -9.398034523617828E-08,
2457061.500000000, A.D. 2015-Feb-08 00:00:00.0000,  2.987485746116332E-03, -6.512357608028308E-04, -1.408694834464308E-04,  3.723800215509145E-06,  5.502019736948766E-06, -9.384764846568945E-08,
2457062.500000000, A.D. 2015-Feb-09 00:00:00.0000,  2.991205831993523E-03, -6.457301843471061E-04, -1.409632653174248E-04,  3.716367643859619E-06,  5.509131166118759E-06, -9.371631750643653E-08,
2457063.500000000, A.D. 2015-Feb-10 00:00:00.0000,  2.994918473407052E-03, -6.402175026958795E-04, -1.410569165056723E-04,  3.708911388904893E-06,  5.516230387996164E-06, -9.358626648677197E-08,
2457064.500000000, A.D. 2015-Feb-11 00:00:00.0000,  2.998623646925296E-03, -6.346977272957062E-04, -1.411504382381395E-04,  3.701431905039954E-06,  5.523318905081167E-06, -9.345738617087863E-08,
2457065.500000000, A.D. 2015-Feb-12 00:00:00.0000,  3.002321329432309E-03, -6.291708681514658E-04, -1.412438316237572E-04,  3.693929377269712E-06,  5.530398094668444E-06, -9.332955075129057E-08,
2457066.500000000, A.D. 2015-Feb-13 00:00:00.0000,  3.006011497881858E-03, -6.236369339606108E-04, -1.413370976397360E-04,  3.686403767331410E-06,  5.537469192309288E-06, -9.320262343030797E-08,
2457067.500000000, A.D. 2015-Feb-14 00:00:00.0000,  3.009694129095265E-03, -6.180959322597422E-04, -1.414302371229075E-04,  3.678854855059512E-06,  5.544533283258662E-06, -9.307646091373377E-08,
2457068.500000000, A.D. 2015-Feb-15 00:00:00.0000,  3.013369199598102E-03, -6.125478695766596E-04, -1.415232507650777E-04,  3.671282274803813E-06,  5.551591299846658E-06, -9.295091696789372E-08,
2457069.500000000, A.D. 2015-Feb-16 00:00:00.0000,  3.017036685490933E-03, -6.069927515827708E-04, -1.416161391115350E-04,  3.663685547078659E-06,  5.558644023055761E-06, -9.282584519678150E-08,
2457070.500000000, A.D. 2015-Feb-17 00:00:00.0000,  3.020696562349438E-03, -6.014305832424069E-04, -1.417089025620051E-04,  3.656064105799347E-06,  5.565692086980791E-06, -9.270110118016412E-08,
$$EOE
*******************************************************************************
Coordinate system description:

  Ecliptic and Mean Equinox of Reference Epoch

    Reference epoch: J2000.0
    xy-plane: plane of the Earth's orbit at the reference epoch
    x-axis  : out along ascending node of instantaneous plane of the Earth's
              orbit and the Earth's mean equator at the reference epoch
    z-axis  : perpendicular to the xy-plane in the directional (+ or -) sense
              of Earth's north pole at the reference epoch.

Symbol meaning [1 au=149597870.700 km, 1 day=86400.0 s]:

    JDCT     Epoch Julian Date, Coordinate Time
      X      x-component of position vector (AU)                               
      Y      y-component of position vector (AU)                               
      Z      z-component of position vector (AU)                               
      VX     x-component of velocity vector (AU/day)                           
      VY     y-component of velocity vector (AU/day)                           
      VZ     z-component of velocity vector (AU/day)                           

States have been corrected for Newtonian light-time and relativistic stellar ab

 Computations by ...
     Solar System Dynamics Group, Horizons On-Line Ephemeris System
     4800 Oak Grove Drive, Jet Propulsion Laboratory
     Pasadena, CA  91109   USA
     Information: http://ssd.jpl.nasa.gov/
     Connect    : telnet://ssd.jpl.nasa.gov:6775  (via browser)
                  telnet ssd.jpl.nasa.gov 6775    (via command-line)
     Author     : Jon.Giorgini@jpl.nasa.gov
*******************************************************************************
